COSMOS 2058             
1 20465U 90010A   26182.36349014  .00003303  00000+0  19010-3 0  9998
2 20465  82.4694 295.3752 0008496 305.9310  54.1131 15.12101259959413
SL-14 R/B               
1 20466U 90010B   26182.19597913  .00000420  00000+0  47981-4 0  9999
2 20466  82.5023 160.7885 0018252 287.3032  72.6185 14.83655486945319
SL-14 R/B               
1 20511U 90018B   26182.25558561  .00000462  00000+0  54886-4 0  9999
2 20511  82.5221 116.9590 0017668  79.2910 281.0293 14.82226019939403
HST                     
1 20580U 90037B   26182.61595811  .00007591  00000+0  23920-3 0  9999
2 20580  28.4735 341.9512 0001541 322.8743  37.1747 15.30918365790782
SL-16 R/B               
1 20625U 90046B   26182.36916961 -.00000240  00000+0 -99413-4 0  9991
2 20625  70.9994  59.1642 0012554 138.7940 221.4133 14.15024707864477
COSMOS 2084             
1 20663U 90055A   26182.46870896  .00002284  00000+0  16884-3 0  9998
2 20663  62.7914 307.3435 0006545 302.3620  57.6847 15.06175927953455
SL-6 R/B(2)             
1 20666U 90055D   26182.47685394  .00001493  00000+0  12004-3 0  9990
2 20666  62.7806 226.7490 0042962   7.1040 353.0659 15.04045838955307
SL-8 R/B                
1 20775U 90078B   26182.27227581  .00033878  00000+0  95827-3 0  9990
2 20775  82.9026 148.9119 0346759 350.8774   8.6243 14.93033033826223
SL-8 R/B                
1 21088U 91006B   26182.65478345  .00000095  00000+0  80202-4 0  9995
2 21088  82.9422  85.2713 0023865  76.4035 303.3260 13.77507392779760
OKEAN-3                 
1 21397U 91039A   26182.49639886  .00002053  00000+0  14110-3 0  9995
2 21397  82.5151 226.5059 0012399 304.9041  55.1020 15.05387120882159
COSMOS 2151             
1 21422U 91042A   26182.59772870  .00001490  00000+0  11606-3 0  9991
2 21422  82.4970 333.7726 0013171  40.0362 320.1830 15.00479656880277
SL-14 R/B               
1 21423U 91042B   26182.60269907  .00000379  00000+0  44861-4 0  9991
2 21423  82.4935 113.3779 0015848 223.0018 136.9959 14.81911310869945
ERS-1                   
1 21574U 91050A   26182.48334550  .00000379  00000+0  13561-3 0  9992
2 21574  98.7794 203.5306 0031089 223.0710 136.8044 14.39526719832107
ARIANE 40 R/B           
1 21610U 91050F   26182.61094326  .00000293  00000+0  10005-3 0  9997
2 21610  98.1868 230.4656 0004473  90.3768 269.7935 14.42965369835421
INTERCOSMOS 25          
1 21819U 91086A   26182.39097577  .00000713  00000+0  14099-3 0  9997
2 21819  82.6032 241.2148 1484015 231.7218 114.1045 12.12218892510461
SL-8 R/B                
1 21876U 92008B   26182.46096486  .00000141  00000+0  12906-3 0  9991
2 21876  82.9260 183.1744 0034796 174.3974 296.0488 13.75980693725063
SL-8 R/B                
1 21938U 92020B   26182.25098924  .00000056  00000+0  42072-4 0  9993
2 21938  82.9298  69.4110 0028755 343.5784 140.7820 13.75550037716748
USA 81                  
1 21949U 92023A   26182.17622692  .00000186  00000+0  61327-4 0  9992
2 21949  85.0065  65.9332 0002522  72.6517 287.4951 14.32401873111033
COSMOS 2219             
1 22219U 92076A   26182.26734852  .00000166  00000+0  11149-3 0  9997
2 22219  71.0606 140.6376 0017366  20.2239 339.9568 14.14108551734430
SL-16 R/B               
1 22220U 92076B   26182.50440192 -.00000214  00000+0 -82464-4 0  9992
2 22220  71.0013 308.6209 0015069 279.7657 150.1092 14.16874604737954
COSMOS 2221             
1 22236U 92080A   26182.64811176  .00001641  00000+0  14163-3 0  9996
2 22236  82.5033 169.9093 0014636 162.7697 197.4025 14.96571346797831
SL-16 R/B               
1 22285U 92093B   26182.23501087  .00000286  00000+0  17068-3 0  9997
2 22285  71.0214 125.9009 0003182 162.0713 198.0523 14.15463739729229
COSMOS 2228             
1 22286U 92094A   26182.58648550  .00002028  00000+0  17082-3 0  9996
2 22286  82.5185 128.2505 0016001 279.7746  80.1670 14.97637627793108
SL-16 R/B               
1 22566U 93016B   26182.49923716 -.00000265  00000+0 -11170-3 0  9997
2 22566  71.0088 336.1463 0009295 162.3798 197.7650 14.15314322718270
COSMOS 2242             
1 22626U 93024A   26182.21830738  .00002024  00000+0  17362-3 0  9996
2 22626  82.5186 158.1185 0014429 285.1262  74.8364 14.96947715797373
SL-16 R/B               
1 22803U 93059B   26182.32365918  .00000257  00000+0  15072-3 0  9998
2 22803  70.9898 131.4925 0015903  30.6755 329.5295 14.17249070695636
ARIANE 40 R/B           
1 22830U 93061H   26182.58997351  .00000209  00000+0  92401-4 0  9990
2 22830  98.4814 249.1475 0009670 311.0920  48.9429 14.32913722710414
COSMOS 2278             
1 23087U 94023A   26182.46217181 -.00000217  00000+0 -88678-4 0  9999
2 23087  71.0548 297.0587 0010312 226.0739 133.9533 14.14396997660890
SL-16 R/B               
1 23088U 94023B   26182.45756850 -.00000211  00000+0 -84335-4 0  9990
2 23088  70.9981 191.9623 0001816 171.7878 188.3275 14.15026643662182
SL-16 R/B               
1 23343U 94074B   26182.34046056  .00000482  00000+0  70985-4 0  9992
2 23343  97.6986 208.4714 0005951 198.6858 172.1165 14.79514503704051
