OBJECT_NAME,OBJECT_ID,EPOCH,MEAN_MOTION,ECCENTRICITY,INCLINATION,RA_OF_ASC_NODE,ARG_OF_PERICENTER,MEAN_ANOMALY,EPHEMERIS_TYPE,CLASSIFICATION_TYPE,NORAD_CAT_ID,ELEMENT_SET_NO,REV_AT_EPOCH,BSTAR,MEAN_MOTION_DOT,MEAN_MOTION_DDOT
COSMOS 2058,1990-010A,2026-07-01T08:43:25.548096,15.12101259,.00084969,82.4694,295.3752,305.9310,54.1131,0,U,20465,999,95941,.19010134E-3,.3303E-4,0
SL-14 R/B,1990-010B,2026-07-01T04:42:12.596832,14.83655486,.00182529,82.5023,160.7885,287.3032,72.6185,0,U,20466,999,94531,.47980953E-4,.42E-5,0
SL-14 R/B,1990-018B,2026-07-01T06:08:02.596704,14.82226019,.00176688,82.5221,116.9590,79.2910,281.0293,0,U,20511,999,93940,.54885991E-4,.462E-5,0
HST,1990-037B,2026-07-01T14:46:58.780704,15.30918365,.00015412,28.4735,341.9512,322.8743,37.1747,0,U,20580,999,79078,.23919939E-3,.7591E-4,0
SL-16 R/B,1990-046B,2026-07-01T08:51:36.254304,14.15024707,.0012554,70.9994,59.1642,138.7940,221.4133,0,U,20625,999,86447,-.99413464E-4,-.24E-5,0
COSMOS 2084,1990-055A,2026-07-01T11:14:56.454144,15.06175927,.00065453,62.7914,307.3435,302.3620,57.6847,0,U,20663,999,95345,.16884297E-3,.2284E-4,0
SL-6 R/B(2),1990-055D,2026-07-01T11:26:40.180416,15.04045838,.00429624,62.7806,226.7490,7.1040,353.0659,0,U,20666,999,95530,.12003516E-3,.1493E-4,0
SL-8 R/B,1990-078B,2026-07-01T06:32:04.629984,14.93033033,.03467599,82.9026,148.9119,350.8774,8.6243,0,U,20775,999,82622,.9582729E-3,.33878E-3,0
SL-8 R/B,1991-006B,2026-07-01T15:42:53.290080,13.77507392,.00238652,82.9422,85.2713,76.4035,303.3260,0,U,21088,999,77976,.80201825E-4,.95E-6,0
OKEAN-3,1991-039A,2026-07-01T11:54:48.861504,15.05387120,.00123991,82.5151,226.5059,304.9041,55.1020,0,U,21397,999,88215,.14110382E-3,.2053E-4,0
COSMOS 2151,1991-042A,2026-07-01T14:20:43.759680,15.00479656,.00131714,82.4970,333.7726,40.0362,320.1830,0,U,21422,999,88027,.11606435E-3,.149E-4,0
SL-14 R/B,1991-042B,2026-07-01T14:27:53.199648,14.81911310,.00158483,82.4935,113.3779,223.0018,136.9959,0,U,21423,999,86994,.44860852E-4,.379E-5,0
ERS-1,1991-050A,2026-07-01T11:36:01.051200,14.39526719,.00310891,98.7794,203.5306,223.0710,136.8044,0,U,21574,999,83210,.13560804E-3,.379E-5,0
ARIANE 40 R/B,1991-050F,2026-07-01T14:39:45.497664,14.42965369,.00044733,98.1868,230.4656,90.3768,269.7935,0,U,21610,999,83542,.10005418E-3,.293E-5,0
INTERCOSMOS 25,1991-086A,2026-07-01T09:23:00.306528,12.12218892,.14840154,82.6032,241.2148,231.7218,114.1045,0,U,21819,999,51046,.14099444E-3,.713E-5,0
SL-8 R/B,1992-008B,2026-07-01T11:03:47.363904,13.75980693,.00347969,82.9260,183.1744,174.3974,296.0488,0,U,21876,999,72506,.12906225E-3,.141E-5,0
SL-8 R/B,1992-020B,2026-07-01T06:01:25.470336,13.75550037,.00287559,82.9298,69.4110,343.5784,140.7820,0,U,21938,999,71674,.42072083E-4,.56E-6,0
USA 81,1992-023A,2026-07-01T04:13:46.005888,14.32401873,.0002522,85.0065,65.9332,72.6517,287.4951,0,U,21949,999,11103,.61327E-4,.186E-5,0
COSMOS 2219,1992-076A,2026-07-01T06:24:58.912128,14.14108551,.00173668,71.0606,140.6376,20.2239,339.9568,0,U,22219,999,73443,.11148844E-3,.166E-5,0
SL-16 R/B,1992-076B,2026-07-01T12:06:20.325888,14.16874604,.00150698,71.0013,308.6209,279.7657,150.1092,0,U,22220,999,73795,-.82463955E-4,-.214E-5,0
COSMOS 2221,1992-080A,2026-07-01T15:33:16.856064,14.96571346,.00146361,82.5033,169.9093,162.7697,197.4025,0,U,22236,999,79783,.14163306E-3,.1641E-4,0
SL-16 R/B,1992-093B,2026-07-01T05:38:24.939168,14.15463739,.00031829,71.0214,125.9009,162.0713,198.0523,0,U,22285,999,72922,.17067772E-3,.286E-5,0
COSMOS 2228,1992-094A,2026-07-01T14:04:32.347200,14.97637627,.0016001,82.5185,128.2505,279.7746,80.1670,0,U,22286,999,79310,.17081805E-3,.2028E-4,0
SL-16 R/B,1993-016B,2026-07-01T11:58:54.090624,14.15314322,.00092954,71.0088,336.1463,162.3798,197.7650,0,U,22566,999,71827,-.11170019E-3,-.265E-5,0
COSMOS 2242,1993-024A,2026-07-01T05:14:21.757632,14.96947715,.00144297,82.5186,158.1185,285.1262,74.8364,0,U,22626,999,79737,.17362233E-3,.2024E-4,0
SL-16 R/B,1993-059B,2026-07-01T07:46:04.153152,14.17249070,.00159039,70.9898,131.4925,30.6755,329.5295,0,U,22803,999,69563,.15071928E-3,.257E-5,0
ARIANE 40 R/B,1993-061H,2026-07-01T14:09:33.711264,14.32913722,.00096702,98.4814,249.1475,311.0920,48.9429,0,U,22830,999,71041,.92400518E-4,.209E-5,0
COSMOS 2278,1994-023A,2026-07-01T11:05:31.644384,14.14396997,.00103123,71.0548,297.0587,226.0739,133.9533,0,U,23087,999,66089,-.88677801E-4,-.217E-5,0
SL-16 R/B,1994-023B,2026-07-01T10:58:53.918400,14.15026643,.00018162,70.9981,191.9623,171.7878,188.3275,0,U,23088,999,66218,-.84335091E-4,-.211E-5,0
SL-16 R/B,1994-074B,2026-07-01T08:10:15.792384,14.79514503,.00059518,97.6986,208.4714,198.6858,172.1165,0,U,23343,999,70405,.70984883E-4,.482E-5,0
